{
  "version": 1,
  "fetchedAt": "2026-06-21T12:32:46.387Z",
  "source": "celestrak-gp",
  "counts": {
    "station": 24,
    "satellite": 520,
    "debris": 250
  },
  "objects": [
    {
      "id": "31598",
      "name": "COSMO-SKYMED 1",
      "noradId": 31598,
      "line1": "1 31598U 07023A   26172.14522127  .00002324  00000+0  20660-3 0  9997",
      "line2": "2 31598  97.8853   4.0340 0001591  96.8472 263.2930 14.97116981 30387",
      "category": "satellite"
    },
    {
      "id": "40336",
      "name": "CBERS 4",
      "noradId": 40336,
      "line1": "1 40336U 14079A   26172.21932770 -.00000147  00000+0 -36497-4 0  9992",
      "line2": "2 40336  98.3525 228.9247 0001687  61.4491 298.6865 14.35509198604538",
      "category": "satellite"
    },
    {
      "id": "47932",
      "name": "CAS500-1",
      "noradId": 47932,
      "line1": "1 47932U 21022A   26172.21001531  .00004792  00000+0  22448-3 0  9997",
      "line2": "2 47932  97.3894  67.3818 0003224 278.9562  81.1308 15.20170489291370",
      "category": "satellite"
    },
    {
      "id": "64900",
      "name": "CO3D 3",
      "noradId": 64900,
      "line1": "1 64900U 25156B   26171.47876997  .00003433  00000+0  16165-3 0  9996",
      "line2": "2 64900  97.4324 250.1245 0001587 126.6035 233.5346 15.20194218 50030",
      "category": "satellite"
    },
    {
      "id": "64901",
      "name": "CO3D 4",
      "noradId": 64901,
      "line1": "1 64901U 25156C   26171.41309958  .00000218  00000+0  13182-4 0  9994",
      "line2": "2 64901  97.4331 250.0596 0000098 241.9959 118.1266 15.20197278 50026",
      "category": "satellite"
    },
    {
      "id": "64902",
      "name": "CO3D 2",
      "noradId": 64902,
      "line1": "1 64902U 25156D   26171.37975280  .00003283  00000+0  15474-3 0  9997",
      "line2": "2 64902  97.4328 249.9261 0001570 106.6316 253.5091 15.20193266 50011",
      "category": "satellite"
    },
    {
      "id": "64903",
      "name": "CO3D 1",
      "noradId": 64903,
      "line1": "1 64903U 25156E   26171.05079051  .00004283  00000+0  20076-3 0  9999",
      "line2": "2 64903  97.4325 249.6020 0001352 114.2620 245.8756 15.20215547 49961",
      "category": "satellite"
    },
    {
      "id": "66655",
      "name": "CAS500-3",
      "noradId": 66655,
      "line1": "1 66655U 25274F   26171.37510272  .00000922  00000+0  10546-3 0  9993",
      "line2": "2 66655  97.7445  99.3536 0006853 102.0514 258.1471 14.88327389 30628",
      "category": "satellite"
    },
    {
      "id": "69013",
      "name": "CAS500-2",
      "noradId": 69013,
      "line1": "1 69013U 26100AK  26171.44244846  .00005146  00000+0  23744-3 0  9999",
      "line2": "2 69013  97.4070  69.2409 0010360  24.6187 335.5541 15.20622267  7305",
      "category": "satellite"
    },
    {
      "id": "36744",
      "name": "COMS 1",
      "noradId": 36744,
      "line1": "1 36744U 10032A   26171.12316773  .00000087  00000+0  00000+0 0  9990",
      "line2": "2 36744   4.8136  75.3217 0011650  12.3209 286.7612  0.99163259 51117",
      "category": "satellite"
    }
  ]
}